{
  "links" : {
    "next" : "https://api.nasa.gov/neo/rest/v1/feed?start_date=2013-10-16&end_date=2013-10-16&detailed=true&api_key=t0TVs3DtDT2H8Oy2Zy8m2eVrNsAVKAexjcZXUckd",
    "prev" : "https://api.nasa.gov/neo/rest/v1/feed?start_date=2013-10-14&end_date=2013-10-14&detailed=true&api_key=t0TVs3DtDT2H8Oy2Zy8m2eVrNsAVKAexjcZXUckd",
    "self" : "https://api.nasa.gov/neo/rest/v1/feed?start_date=2013-10-15&end_date=2013-10-15&detailed=true&api_key=t0TVs3DtDT2H8Oy2Zy8m2eVrNsAVKAexjcZXUckd"
  },
  "element_count" : 13,
  "near_earth_objects" : {
    "2013-10-15" : [ {
      "links" : {
        "self" : "https://api.nasa.gov/neo/rest/v1/neo/3781737?api_key=t0TVs3DtDT2H8Oy2Zy8m2eVrNsAVKAexjcZXUckd"
      },
      "neo_reference_id" : "3781737",
      "name" : "(2017 SS12)",
      "nasa_jpl_url" : "http://ssd.jpl.nasa.gov/sbdb.cgi?sstr=3781737",
      "absolute_magnitude_h" : 27.036,
      "estimated_diameter" : {
        "kilometers" : {
          "estimated_diameter_min" : 0.0104077051,
          "estimated_diameter_max" : 0.023272336
        },
        "meters" : {
          "estimated_diameter_min" : 10.4077050644,
          "estimated_diameter_max" : 23.2723360138
        },
        "miles" : {
          "estimated_diameter_min" : 0.0064670461,
          "estimated_diameter_max" : 0.0144607547
        },
        "feet" : {
          "estimated_diameter_min" : 34.1460150836,
          "estimated_diameter_max" : 76.3528108877
        }
      },
      "is_potentially_hazardous_asteroid" : false,
      "close_approach_data" : [ {
        "close_approach_date" : "2013-10-15",
        "epoch_date_close_approach" : 1381820400000,
        "relative_velocity" : {
          "kilometers_per_second" : "22.6017864269",
          "kilometers_per_hour" : "81366.4311370052",
          "miles_per_hour" : "50557.9360584353"
        },
        "miss_distance" : {
          "astronomical" : "0.4181506021",
          "lunar" : "162.6605834961",
          "kilometers" : "62554440",
          "miles" : "38869528"
        },
        "orbiting_body" : "Earth"
      } ],
      "orbital_data" : {
        "orbit_id" : "2",
        "orbit_determination_date" : "2017-09-27 06:51:26",
        "orbit_uncertainty" : "6",
        "minimum_orbit_intersection" : "1.73698E-5",
        "jupiter_tisserand_invariant" : "5.246",
        "epoch_osculation" : "2458000.5",
        "eccentricity" : ".3360304140847115",
        "semi_major_axis" : "1.198173785981415",
        "inclination" : "1.190598952621936",
        "ascending_node_longitude" : "1.335295744923144",
        "orbital_period" : "479.0470250311011",
        "perihelion_distance" : ".7955509525326334",
        "perihelion_argument" : "280.3141379434088",
        "aphelion_distance" : "1.600796619430196",
        "perihelion_time" : "2457962.358994778989",
        "mean_anomaly" : "28.66265974341995",
        "mean_motion" : ".7514919855240261",
        "equinox" : "J2000"
      }
    } ]
  }
}